{"type":"FeatureCollection","features":[{"type":"Feature","id":0,"geometry":{"type":"Polygon","coordinates":[[[30.34630393981962,-1.993351221084481],[30.346187591552791,-1.993261814117318],[30.346157073974609,-1.9931986331939697],[30.346065521240519,-1.9931651353834923],[30.3459606170656,-1.9932073354719932],[30.345798492431697,-1.9933270215985885],[30.345651626587028,-1.9934537410736084],[30.345573425293253,-1.993580341338884],[30.34549522399908,-1.9937211275100708],[30.345418930053881,-1.9940097332000732],[30.345235824584961,-1.9940941333769615],[30.345024108886832,-1.9942278861998375],[30.344877243042049,-1.9943475723266033],[30.344770431518839,-1.9945094585418133],[30.344636917114315,-1.9946712255477337],[30.344453811645565,-1.9947416782378014],[30.344223022461222,-1.9947627782821087],[30.344024658203182,-1.9947276115416344],[30.343652725219783,-1.9946854114532471],[30.34351921081543,-1.9947205781936646],[30.343294143676985,-1.9947627782821087],[30.34311676025402,-1.9948190450668335],[30.342920303344783,-1.9948824644088745],[30.342596054077205,-1.99497389793396],[30.342399597168139,-1.9950020313262371],[30.342075347900504,-1.9950724840163048],[30.341941833496378,-1.9951498508453369],[30.341772079467944,-1.9952273368835449],[30.341596603393725,-1.9952906370162964],[30.341329574585245,-1.9953680038451012],[30.341047286987305,-1.9954595565794762],[30.34083747863798,-1.9955439567565918],[30.340408325195597,-1.9957269430159386],[30.340167999267692,-1.9958325624465374],[30.339900970459212,-1.9959028959273724],[30.339704513549805,-1.995895862579232],[30.339450836181811,-1.9958747625350952],[30.339275360107422,-1.9959169626235393],[30.338943481445256,-1.9961141347885132],[30.33878135681158,-1.9962477684020428],[30.33859825134283,-1.9963885545729454],[30.338443756103629,-1.9965363740921021],[30.338211059570483,-1.996712327003479],[30.337915420532283,-1.9968037605285645],[30.337627410888729,-1.9968882799147423],[30.337297439575366,-1.9970290660858154],[30.336936950683651,-1.9971768856048584],[30.336648941040323,-1.9973034858702476],[30.336297988891715,-1.9973175525663009],[30.33603668212919,-1.9972472190855797],[30.335803985595874,-1.9971839189528851],[30.33552360534668,-1.9972120523452759],[30.335206985473803,-1.9973386526107788],[30.335136413574389,-1.9973703622817425],[30.335060119628963,-1.9974054098127567],[30.334964752197322,-1.9974582195281982],[30.334875106811637,-1.9975373744964031],[30.334815979003963,-1.9976693391799358],[30.334690093994311,-1.9977591037749676],[30.334568023681868,-1.9978646039961632],[30.334552764892635,-1.9980071783064659],[30.334564208984546,-1.9981127977370079],[30.334669113159464,-1.998228907585144],[30.334711074829329,-1.9982552528381348],[30.33480644226097,-1.9983654022216797],[30.334638595581339,-1.9983916282652672],[30.334554672241211,-1.9984233379363445],[30.334417343139876,-1.9985235929487999],[30.334253311157397,-1.9986079931256882],[30.334089279175089,-1.9986872673034668],[30.333946228027628,-1.9987716674804688],[30.333862304687557,-1.9988508224485599],[30.333763122558878,-1.9989353418349083],[30.333667755127237,-1.999056696891671],[30.333608627319336,-1.9991306066513062],[30.333557128906534,-1.9991623163220993],[30.333518981933821,-1.9991728067398071],[30.33335113525419,-1.9992362260818481],[30.333164215088061,-1.9993650913237957],[30.333112716675089,-1.9992339611052898],[30.33302497863798,-1.9992805719374473],[30.332960128784293,-1.9993151426314171],[30.332881927490519,-1.9993573427199749],[30.33276557922369,-1.9993890523910522],[30.332628250122127,-1.9993996620178223],[30.332502365112362,-1.9994312524795532],[30.332416534423828,-1.9994893074035076],[30.332344055175838,-1.999573826789856],[30.332099914550952,-1.9997268915175823],[30.331851959228516,-1.9999169111251831],[30.331708908081055,-2.000027894973698],[30.331588745117244,-2.0001332759857178],[30.331478118896541,-2.0002601146697998],[30.331382751464901,-2.000386714935189],[30.331266403198185,-2.0005080699919517],[30.331144332885799,-2.0006031990049564],[30.331087112426985,-2.0007088184356689],[30.330892562866381,-2.0009040832518963],[30.330827713012866,-2.001025438308659],[30.33068656921381,-2.0011310577392578],[30.330574035644702,-2.0012311935424805],[30.330490112304972,-2.0013473033904461],[30.330347061157511,-2.0014212131499107],[30.33018875122076,-2.0015268325804527],[30.330041885376147,-2.001511096954232],[30.329904556274471,-2.0014529228210449],[30.329725265503043,-2.001447677612191],[30.32942390441923,-2.0016219615935711],[30.329286575317553,-2.0016589164733318],[30.329208374023381,-2.0017011165618896],[30.329030990600586,-2.0017199516296387],[30.328960418701342,-2.0017275810241131],[30.328781127929972,-2.0017907619475181],[30.328674316406421,-2.0018014907835777],[30.328575134277401,-2.0017855167388916],[30.328462600708292,-2.0017750263212974],[30.328268051147461,-2.0017328262329102],[30.328145980835018,-2.0017750263212974],[30.328163146972713,-2.0019702911376953],[30.327804565429744,-2.0020968914030846],[30.327646255493391,-2.0020864009856609],[30.327476501464957,-2.0020968914030846],[30.327386856079272,-2.0022130012512207],[30.327396392822209,-2.0023133754729656],[30.327482223510913,-2.0024347305297283],[30.327581405639933,-2.0025985240934006],[30.327619552612418,-2.002735614776384],[30.327659606933878,-2.0028264522550785],[30.327390670776651,-2.0029337406156742],[30.327058792114315,-2.0028650760650066],[30.326883316040266,-2.0028598308562096],[30.326688766479435,-2.0028915405272869],[30.326488494873217,-2.0029232501982506],[30.326276779175089,-2.0029232501982506],[30.326103210449503,-2.0029337406156742],[30.325971603393555,-2.0029759407043457],[30.325828552246094,-2.0029759407043457],[30.325769424438761,-2.0029759407043457],[30.325632095336857,-2.0029494762420086],[30.325504302978686,-2.0029284954070476],[30.325460433960188,-2.0029194355009849],[30.325090408325366,-2.0028412342070965],[30.324956893921012,-2.002813100814592],[30.324794769287109,-2.0028202533720787],[30.324626922607479,-2.0028202533720787],[30.324436187744197,-2.002813100814592],[30.324218750000284,-2.0027852058410645],[30.32403755187994,-2.0027990341185387],[30.323398590087834,-2.0027990341185387],[30.323152542114201,-2.0028202533720787],[30.322914123535099,-2.0028202533720787],[30.322507858276538,-2.0027220249175457],[30.322269439697436,-2.0026097297667889],[30.322044372558651,-2.0025465488432701],[30.321876525879134,-2.0025172233580975],[30.321763992309855,-2.0024974346160889],[30.321378707885913,-2.002434253692627],[30.320970535278548,-2.0023992061613853],[30.320627212524698,-2.0023641586303711],[30.320388793945597,-2.0023009777068523],[30.319988250732592,-2.0021536350249676],[30.31977844238304,-2.0020623207092285],[30.319477081298885,-2.0020344257354168],[30.319202423095646,-2.0020484924315838],[30.318950653076456,-2.0020976066589355],[30.318691253662109,-2.0020976066589355],[30.31847953796381,-2.0021185874937828],[30.318304061889819,-2.0021886825559818],[30.31804466247587,-2.0022027492523193],[30.317756652832145,-2.0021536350249676],[30.317441940307845,-2.002069473266431],[30.317167282104663,-2.0020484924315838],[30.316915512085245,-2.0021185874937828],[30.316682815551928,-2.0021536350249676],[30.316444396972827,-2.0021045207977295],[30.316242218017635,-2.0020272731780437],[30.316051483154354,-2.0019431114196777],[30.315919876098803,-2.0018308162688072],[30.315792083740405,-2.0017535686491215],[30.315658569336051,-2.0016694068908691],[30.315547943115519,-2.0015852451322189],[30.315452575683878,-2.0015158653258709],[30.315414428710994,-2.0014870166777996],[30.315063476562784,-2.0013678073882488],[30.31492996215826,-2.0013186931608971],[30.31480979919462,-2.0011782646178631],[30.314676284790266,-2.0009958744049072],[30.314542770385742,-2.0008695125578697],[30.314403533935831,-2.0007503032683189],[30.31425666809082,-2.0006661415100098],[30.314010620117188,-2.0006029605864342],[30.313735961914347,-2.0005047321319012],[30.313497543335245,-2.0004274845123291],[30.313287734985352,-2.0003364086149986],[30.313062667846907,-2.0002381801602951],[30.312831878662166,-2.0002241134642418],[30.312677383423022,-2.0002591609954266],[30.312627792358398,-2.0002732276915935],[30.312467575073299,-2.0002942085266113],[30.312158584594727,-2.0003714561461834],[30.312143325805664,-2.0004837512968834],[30.31194114685087,-2.000532865524292],[30.311807632446346,-2.000532865524292],[30.311639785766658,-2.0005819797515869],[30.311323165893612,-2.0006029605864342],[30.311140060424862,-2.0006239414214519],[30.310880661010913,-2.0006170272826012],[30.310613632202433,-2.0005607604980469],[30.310424804687557,-2.0005116462706951],[30.310249328613509,-2.0004205703735352],[30.310110092163256,-2.0003223419189453],[30.309793472290153,-2.0000836849212078],[30.309680938720874,-2.0000135898590088],[30.309434890747241,-1.9999433755874634],[30.309259414673022,-1.9998732805250938],[30.309015274048136,-1.9997609853744507],[30.308832168579215,-1.9996978044508751],[30.308656692504826,-1.9995925426483154],[30.308481216430835,-1.9994803667067913],[30.308235168456974,-1.9994031190872192],[30.307996749877873,-1.9993399381637573],[30.307807922363565,-1.9992837905883221],[30.307653427124194,-1.9991855621337891],[30.307527542114428,-1.9990522861480713],[30.307365417480526,-1.9990102052687462],[30.307239532470703,-1.9990804195404053],[30.307043075561467,-1.9991014003752525],[30.307006835937727,-1.9990962743758018],[30.306972503662223,-1.9990913867950439],[30.306943893432674,-1.9990873336790855],[30.306768417358626,-1.9990172386168865],[30.306621551513842,-1.9988838434218223],[30.306509017944506,-1.99870848655695],[30.306383132934741,-1.9986032247542198],[30.30570220947294,-1.9982805252074058],[30.305274963378963,-1.9981541633605389],[30.304769515991381,-1.9981050491333008],[30.304130554199276,-1.9980770349501427],[30.303787231445597,-1.9980138540267944],[30.303318023681925,-1.9979296922682579],[30.302959442138956,-1.9978033304212204],[30.302600860595646,-1.9977401494979858],[30.302349090576229,-1.9977401494979858],[30.302026748657397,-1.9975793361662681],[30.301979064941577,-1.9975556135177612],[30.301689147949503,-1.9974104166030315],[30.301534652710131,-1.9972701072692871],[30.30146408081049,-1.9971648454665569],[30.301439285278491,-1.9970722198485191],[30.301408767700138,-1.9969683885573204],[30.301233291626147,-1.9967789649962242],[30.30106163024908,-1.9965711832045372],[30.300916671753043,-1.9966634511947632],[30.300775527954158,-1.9968459606170086],[30.300678253173942,-1.9970142841339111],[30.300607681274698,-1.9971686601638226],[30.300529479980526,-1.9972879886627197],[30.300395965576229,-1.9973791837691124],[30.300277709960938,-1.9974983930586632],[30.300235748291243,-1.9976457357405479],[30.300178527832315,-1.9978423118591309],[30.300130844116495,-1.9980456829070476],[30.300052642822322,-1.9983404874801636],[30.299961090088061,-1.9985579252243042],[30.299850463867358,-1.9987334012985229],[30.299659729004077,-1.9989298582074753],[30.299520492553938,-1.9991122484207153],[30.299392700195369,-1.9992386102676392],[30.299324035644531,-1.9993928670883179],[30.299211502075252,-1.9996033906934372],[30.299156188964901,-1.9997342824935913],[30.299112319946403,-1.9998350143432049],[30.299057006836051,-2.0000033378601074],[30.298973083496151,-2.0002419948576744],[30.298868179321346,-2.000501632690316],[30.298831939697436,-2.0006558895110516],[30.298755645752237,-2.0008873939513023],[30.298698425292912,-2.0010910034179119],[30.298627853393668,-2.0012929439544678],[30.298606872558821,-2.0013506412504967],[30.298572540283487,-2.00163817405695],[30.298593521118335,-2.0018908977507408],[30.298601150512695,-2.0021083354949951],[30.298522949218921,-2.0023398399353027],[30.298431396484432,-2.0025222301482017],[30.298418045043945,-2.0027327537536053],[30.298446655273722,-2.0029714107512291],[30.298452377319279,-2.0031960010526859],[30.298439025878963,-2.0033502578735352],[30.298418045043945,-2.003518581390324],[30.298425674438477,-2.0039327144621666],[30.298543930053768,-2.0040729045867351],[30.298593521118335,-2.0042061805724529],[30.298601150512695,-2.0044097900390057],[30.298648834228516,-2.0046131610868088],[30.298706054687671,-2.0048518180847168],[30.298755645752237,-2.0050973892210209],[30.298789978027401,-2.0052869319915771],[30.298810958862589,-2.0054903030394939],[30.298803329468058,-2.0056798458099365],[30.298868179321346,-2.0058271884918213],[30.298965454101619,-2.0059533119200523],[30.299077987670898,-2.0060727596282391],[30.299182891845874,-2.0062410831451416],[30.299261093139819,-2.0064165592192467],[30.299337387085018,-2.0065920352933517],[30.299457550048885,-2.006802320480233],[30.299392700195369,-2.0068099498747642],[30.299365997314396,-2.0068993568419273],[30.299312591553019,-2.0070257186889648],[30.299249649047908,-2.0072362422942547],[30.299249649047908,-2.0074203014373779],[30.299264907837198,-2.007636070251408],[30.299276351928711,-2.0078203678130535],[30.299297332763729,-2.0079729557037354],[30.299318313598576,-2.008162260055542],[30.299381256103686,-2.0083465576171307],[30.299486160278434,-2.0085780620573814],[30.299554824829102,-2.0087463855743408],[30.299575805664119,-2.0088832378387451],[30.29962348937994,-2.0090305805206299],[30.299665451049805,-2.0091516971588135],[30.29963493347185,-2.0092780590056236],[30.299602508544922,-2.0093779563903809],[30.29948806762701,-2.0095303058624268],[30.299707412719897,-2.0097260475158691],[30.299615859985579,-2.0099775791165939],[30.299541473388786,-2.0100986957550049],[30.299385070800838,-2.0102250576018719],[30.29926872253418,-2.0103092193602379],[30.299158096313647,-2.010398626327401],[30.299074172973917,-2.0104987621307373],[30.299020767211971,-2.0106618404388428],[30.298957824707088,-2.0107986927032471],[30.298831939697436,-2.0109407901763916],[30.298753738403491,-2.0110776424406822],[30.298700332641886,-2.0112142562865074],[30.298664093017578,-2.0113353729248047],[30.29859542846674,-2.0114407539366539],[30.298553466796875,-2.0115144252775963],[30.298625946045092,-2.011756420135498],[30.29865837097185,-2.0118827819823082],[30.29874229431158,-2.0120301246642498],[30.298816680908374,-2.0121457576751709],[30.298879623413256,-2.0122826099395184],[30.298931121826456,-2.01242995262146],[30.298957824707088,-2.0125982761383057],[30.298936843872013,-2.0127351284025963],[30.298942565917969,-2.0127904415129478],[30.298957824707088,-2.0129320621490479],[30.29899787902832,-2.0131604671475998],[30.299057006836051,-2.0134809017181396],[30.299081802368448,-2.0137429237365154],[30.29918098449707,-2.014129638671875],[30.299144744873331,-2.014516353607064],[30.299194335937557,-2.0149405002592857],[30.299318313598576,-2.0155141353606609],[30.29945564270048,-2.0161254405975342],[30.299592971801815,-2.016474723815918],[30.299892425537394,-2.0175974369049072],[30.299955368042276,-2.0180339813231285],[30.300029754638729,-2.0183956623077393],[30.300216674804631,-2.0186700820922283],[30.300378799438704,-2.0194184780119713],[30.300378799438704,-2.0197677612304119],[30.300441741943416,-2.0201795101165771],[30.300540924072436,-2.0204539299010094],[30.300603866577148,-2.0207533836364178],[30.300628662109546,-2.021327018737793],[30.300628662109546,-2.0216140747069176],[30.300741195678654,-2.0220379829406738],[30.30088996887207,-2.0223498344420818],[30.301027297973576,-2.0225870609282879],[30.30106544494646,-2.0229487419127281],[30.301128387451172,-2.0232980251312256],[30.301115036010856,-2.0235972404477707],[30.301227569580362,-2.0238592624664307],[30.301427841186751,-2.0240588188171387],[30.301551818847599,-2.0242958068846519],[30.30161476135271,-2.0245578289031414],[30.301639556884879,-2.0248072147367111],[30.301675796508846,-2.025056838989201],[30.301813125610522,-2.0254309177397545],[30.301963806152514,-2.0257303714751629],[30.302074432373217,-2.0260257720947266],[30.30213737487793,-2.0261919498443604],[30.302162170410327,-2.02655363082863],[30.302238464355696,-2.0269527435302734],[30.302249908447436,-2.0271773338316734],[30.302213668823526,-2.0275142192840008],[30.302213668823526,-2.0279009342193604],[30.302179336547795,-2.0280711650848389],[30.30216026306158,-2.0281748771665207],[30.30213737487793,-2.0282874107360271],[30.301975250244425,-2.0284996032713707],[30.301752090454386,-2.0288736820219242],[30.301626205444393,-2.0290982723234947],[30.301477432250977,-2.0293602943419842],[30.301326751708984,-2.0295348167418865],[30.301052093506144,-2.0297095775603111],[30.300865173339901,-2.0300090312957195],[30.300765991211222,-2.0302584171294029],[30.300579071044979,-2.0305328369140625],[30.300416946411417,-2.0307574272154625],[30.300354003906534,-2.0311565399168217],[30.300216674804631,-2.0312936305998051],[30.300104141235522,-2.0315680503844078],[30.299917221069393,-2.0318799018859863],[30.29971885681158,-2.0320670604703537],[30.299583435058651,-2.0321722030638512],[30.299493789672965,-2.0322418212890625],[30.299406051635685,-2.0324661731719971],[30.299343109130973,-2.0326409339903648],[30.299156188964901,-2.0328154563902672],[30.298994064331339,-2.0329527854919434],[30.298370361328125,-2.033364295959359],[30.298246383667106,-2.0335514545440674],[30.297958374023608,-2.0339879989622887],[30.297760009765796,-2.0342376232146648],[30.297634124755973,-2.0345244407652672],[30.297460556030558,-2.0347864627836429],[30.297348022461051,-2.0349984169006348],[30.297210693359546,-2.0351855754851158],[30.297061920166129,-2.0354101657866863],[30.29688644409174,-2.0355973243712242],[30.29658699035673,-2.0359466075896648],[30.296199798584041,-2.0360088348388672],[30.295951843261776,-2.0360462665557861],[30.295751571655558,-2.0360462665557861],[30.295564651489258,-2.0361461639403728],[30.295614242553881,-2.0363705158231369],[30.295627593994197,-2.03652024269104],[30.295600891113565,-2.0366325378417969],[30.295515060425032,-2.0366699695585453],[30.29532814025896,-2.0366823673248291],[30.295177459716967,-2.0366823673248291],[30.294977188110352,-2.0366823673248291],[30.294866561889819,-2.0366823673248291],[30.294729232788143,-2.0366950035095215],[30.294548034667969,-2.0367295742033207],[30.294540405273608,-2.0368630886076744],[30.294534683227653,-2.0369963645932785],[30.294414520263842,-2.0372629165648846],[30.294422149658374,-2.0373542308807373],[30.294427871704158,-2.0374944210051353],[30.294422149658374,-2.0376629829405601],[30.294393539428995,-2.0378313064574627],[30.294385910034237,-2.0379786491394043],[30.294309616088867,-2.0382242202756515],[30.294239044189624,-2.0385119915007408],[30.294141769409237,-2.038939952850285],[30.294141769409237,-2.0391645431518555],[30.294147491455135,-2.0393047332762535],[30.294099807739315,-2.0396485328674316],[30.294078826904297,-2.0398380756378174],[30.294042587280558,-2.040069580078125],[30.294029235840071,-2.0402169227600098],[30.294050216674918,-2.0404484272002605],[30.294126510620117,-2.0406029224395184],[30.294147491455135,-2.0407712459564209],[30.294147491455135,-2.0410099029540447],[30.294084548950423,-2.0415780544281006],[30.294078826904297,-2.0417675971983726],[30.294034957886026,-2.0420131683349609],[30.294013977050838,-2.0422656536102295],[30.294008255005053,-2.0424342155456543],[30.293992996215991,-2.0426516532897949],[30.294008255005053,-2.0428199768066406],[30.294008255005053,-2.0429463386533939],[30.293924331665323,-2.0430936813354492],[30.293880462646484,-2.0431814193725586],[30.293994903564737,-2.0432405471801758],[30.294158935547046,-2.0433013439178467],[30.294263839721623,-2.0433013439178467],[30.29434776306158,-2.0433013439178467],[30.294500350952148,-2.043353796005249],[30.294668197632006,-2.043438196182251],[30.29479026794462,-2.0435171127317062],[30.294916152954215,-2.0436012744903564],[30.295053482055721,-2.0436959266660324],[30.295200347900561,-2.0437960624694824],[30.295331954956112,-2.0439012050628662],[30.295452117919979,-2.043959140777531],[30.295562744140852,-2.0440223217010498],[30.295663833618448,-2.0440855026244549],[30.295753479004134,-2.0441431999206543],[30.296026229858398,-2.0443484783171471],[30.296152114868221,-2.0444486141203697],[30.296236038208292,-2.0445590019226074],[30.296342849731502,-2.0446748733518803],[30.296478271484432,-2.0447378158569336],[30.296567916870288,-2.0448222160339355],[30.296678543090991,-2.0449273586273193],[30.296846389770678,-2.0450799465178306],[30.29689025878929,-2.0451641082763672],[30.296953201294002,-2.0452747344970135],[30.297052383423022,-2.0453903675078209],[30.29715728759777,-2.0454747676849365],[30.297262191772745,-2.0455956459044842],[30.297357559204386,-2.0457062721251305],[30.297473907470874,-2.0458166599273682],[30.297578811645621,-2.045932531356641],[30.297662734985352,-2.0460481643675621],[30.297847747802905,-2.046247959136906],[30.29792594909685,-2.0463902950286865],[30.298036575317383,-2.0465586185454185],[30.298147201538143,-2.0467219352722168],[30.298252105713061,-2.0469164848327637],[30.298347473144702,-2.0471270084379967],[30.298404693603459,-2.0472848415374756],[30.298488616943416,-2.0475113391876221],[30.298551559448299,-2.0477006435393719],[30.298631668090877,-2.0478689670562744],[30.298673629760913,-2.0480375289916992],[30.298704147338867,-2.0482006072998047],[30.298767089843807,-2.0483374595641521],[30.298793792724553,-2.0485374927519615],[30.298852920532454,-2.0486531257629395],[30.298910140991268,-2.0488004684448242],[30.298984527587834,-2.048947811126709],[30.299030303955078,-2.0490794181822594],[30.29908943176298,-2.0492267608641441],[30.299161911011026,-2.0493688583374023],[30.299209594726847,-2.0495214462279705],[30.299278259277514,-2.0496582984924316],[30.299304962158487,-2.0497846603392986],[30.299379348754883,-2.0499320030210697],[30.299509048461857,-2.0505161285398685],[30.29953575134283,-2.0506265163421631],[30.299573898315714,-2.0507214069366455],[30.299631118774471,-2.0508265495300293],[30.299663543701399,-2.0509948730467613],[30.299688339233455,-2.0511529445647625],[30.299699783325138,-2.0512843132019043],[30.299720764160213,-2.0514369010924725],[30.299751281738509,-2.0515685081481934],[30.299789428711222,-2.051731586456242],[30.299837112427042,-2.0519106388090904],[30.299867630004996,-2.0520265102385338],[30.299877166748331,-2.0521013736723717],[30.299888610839844,-2.052210569381657],[30.299903869628906,-2.0523474216460045],[30.299930572509709,-2.0524685382843018],[30.299999237060547,-2.0527737140653244],[30.300062179565487,-2.0529000759123619],[30.300083160400675,-2.0529737472533043],[30.300077438354549,-2.0530788898466881],[30.300056457519702,-2.0532052516937256],[30.30008888244646,-2.0533473491666996],[30.300115585327433,-2.0534629821776207],[30.300151824951342,-2.053584098815918],[30.300188064575423,-2.0536997318267254],[30.300235748291243,-2.053941965102922],[30.300283432007063,-2.0540683269499596],[30.300361633301065,-2.0541944503783611],[30.300441741943416,-2.0542998313903809],[30.300489425659237,-2.0544419288634685],[30.300561904907454,-2.054578781127816],[30.30061531066923,-2.0547313690185547],[30.300735473633097,-2.0549681186675457],[30.300773620605582,-2.0550785064697266],[30.300783157348917,-2.0552258491516113],[30.3008460998538,-2.0553679466245853],[30.300905227661133,-2.0554838180541992],[30.300962448120288,-2.0555996894836426],[30.301036834717081,-2.05571532249445],[30.301410675049112,-2.0562152862548828],[30.301584243774528,-2.0564467906950199],[30.301671981811808,-2.0565574169158936],[30.301761627197493,-2.0566415786742027],[30.301851272583008,-2.0567519664764404],[30.301876068115405,-2.0568029880521408],[30.301914215087947,-2.0568888187408447],[30.301961898803768,-2.0570256710051922],[30.302036285400334,-2.0571098327635582],[30.302125930786417,-2.0572099685667808],[30.302219390869084,-2.0573520660400391],[30.302293777465877,-2.0574729442596436],[30.302383422851562,-2.0575571060180096],[30.302446365356502,-2.0576415061950684],[30.302499771118448,-2.0577414035797119],[30.302698135376261,-2.0578572750090984],[30.302772521972713,-2.0579202175140381],[30.302862167358569,-2.0580308437345138],[30.302961349487362,-2.0581519603729248],[30.303047180176065,-2.0582466125487144],[30.303146362304688,-2.05830979347229],[30.30322074890131,-2.0584254264830406],[30.303293228149698,-2.0585203170776367],[30.303487777710018,-2.0586676597594078],[30.303598403930721,-2.0587570667265709],[30.303724288940487,-2.0588781833648113],[30.303831100464038,-2.0590095520018394],[30.30394172668457,-2.0590622425079346],[30.304040908813761,-2.0591254234312828],[30.304124832153491,-2.0592148303984459],[30.304214477539176,-2.0593833923338707],[30.304262161254996,-2.0594990253448486],[30.304325103759709,-2.0596044063565841],[30.304430007934855,-2.0597095489500816],[30.304546356201342,-2.0598042011260418],[30.304630279541072,-2.0598938465117271],[30.305072784423942,-2.0603358745574383],[30.305231094360295,-2.0604147911071777],[30.305398941040153,-2.0606145858763512],[30.30546760559082,-2.060725212097168],[30.305587768554858,-2.060809373855534],[30.305719375610579,-2.0609040260314941],[30.30581474304222,-2.0610198974608238],[30.305934906005916,-2.0611357688902672],[30.306024551391772,-2.0612199306488037],[30.306167602539233,-2.061335563659668],[30.306293487548828,-2.0614144802093506],[30.306392669678019,-2.0615146160124596],[30.306472778320597,-2.0615670680998619],[30.306652069091967,-2.0616302490233807],[30.306772232055835,-2.0617039203642094],[30.30689811706543,-2.0617883205413818],[30.307350158691463,-2.0620145797728924],[30.30757141113304,-2.062109231948682],[30.307744979858683,-2.0621776580809978],[30.307903289795206,-2.062272310256958],[30.308034896850756,-2.0623512268065269],[30.308202743530444,-2.0624144077301025],[30.308361053466967,-2.0624775886535645],[30.308567047119141,-2.0625882148742676],[30.308919906616495,-2.0627355575561523],[30.309135437012003,-2.0628092288970947],[30.3093395233156,-2.0629091262817383],[30.309461593628214,-2.0629932880400474],[30.309610366821232,-2.0630316734311691],[30.309644699096737,-2.0630407333373455],[30.310071945190543,-2.0632565021514324],[30.310323715210131,-2.0633563995360191],[30.310508728027457,-2.0634143352507408],[30.310739517212028,-2.0635247230529217],[30.311271667480582,-2.0637722015379154],[30.311519622803019,-2.06390380859375],[30.311735153198299,-2.0639562606811523],[30.311914443969897,-2.0640563964842613],[30.312055587768555,-2.0641140937805176],[30.312213897705135,-2.0641562938690186],[30.312513351440714,-2.0642194747923668],[30.312723159790039,-2.0642879009246826],[30.312950134277628,-2.0643668174741379],[30.313156127929972,-2.0644247531890301],[30.313339233398722,-2.0644667148590088],[30.313508987426815,-2.0644879341125488],[30.313692092895565,-2.0645036697387695],[30.313856124878214,-2.064556360244751],[30.314018249511719,-2.0646088123321533],[30.314191818237362,-2.0646772384642986],[30.31434440612793,-2.0647141933440025],[30.31450271606451,-2.0647351741790771],[30.314634323120401,-2.0647404193878174],[30.315176010131893,-2.0648245811462402],[30.315319061279354,-2.0648088455199627],[30.315534591675032,-2.0647878646849449],[30.315660476684855,-2.0648036003111656],[30.315813064575252,-2.0648455619812012],[30.315858840942667,-2.0648634433746338],[30.315958023071289,-2.0645401477813152],[30.316020965576172,-2.0644032955169678],[30.316083908081112,-2.064255952835083],[30.316093444824389,-2.0641086101531982],[30.316137313843058,-2.0639717578887371],[30.316183090210075,-2.0638086795806316],[30.316209793091048,-2.0637137889862061],[30.316278457641715,-2.0636401176452068],[30.316310882568644,-2.0635612010954674],[30.316347122192383,-2.0634298324584961],[30.316410064697322,-2.0632612705230144],[30.316446304321573,-2.0631561279296307],[30.316478729248331,-2.0630035400389488],[30.316514968872241,-2.0628666877746582],[30.316551208496151,-2.0627720355987549],[30.316652297973746,-2.0626876354216392],[30.316682815551928,-2.0625193119049072],[30.316730499267749,-2.0623245239257244],[30.316751480102596,-2.0621824264525799],[30.316757202148722,-2.062029838561898],[30.316778182983569,-2.0618562698364258],[30.316867828369425,-2.0616667270658127],[30.316942214965877,-2.0615458488463787],[30.317031860351733,-2.0613932609558105],[30.317104339599553,-2.0612406730651287],[30.317167282104663,-2.0610249042510986],[30.317209243774698,-2.0609142780303955],[30.317241668701456,-2.060803890228101],[30.317293167114258,-2.0606722831725506],[30.317361831665096,-2.0605196952818687],[30.317436218261719,-2.0603933334350018],[30.317535400390909,-2.0602407455444336],[30.317651748657397,-2.0600776672363281],[30.317705154419002,-2.0599722862243084],[30.317825317382812,-2.0597250461576664],[30.317935943603572,-2.0594828128814697],[30.317977905273608,-2.0593619346618652],[30.318014144897688,-2.0592355728149414],[30.318073272705249,-2.0591304302214439],[30.318145751953068,-2.0590145587921143],[30.318262100219727,-2.0589094161987305],[30.318315505981502,-2.0588092803955078],[30.318336486816349,-2.0587146282195476],[30.318357467651367,-2.0586092472076416],[30.31838417053217,-2.0584988594054607],[30.318420410156307,-2.0583724975585938],[30.31853103637701,-2.0582461357116699],[30.318641662597884,-2.0581252574919517],[30.318704605102596,-2.0580198764800457],[30.318773269653263,-2.057919979095459],[30.318946838379077,-2.0576043128967285],[30.319025039672852,-2.0575411319731529],[30.31910896301298,-2.0574674606322105],[30.319198608398494,-2.057377815246582],[30.319299697876261,-2.0572884082794189],[30.319393157958928,-2.0571990013122559],[30.319499969482649,-2.057114839553833],[30.319572448730526,-2.0570726394651615],[30.319734573364428,-2.0567984580991947],[30.319751739502067,-2.0567700862883385],[30.319940567016772,-2.0564465522764976],[30.320062637329386,-2.0562517642974285],[30.320156097412053,-2.0560569763182457],[30.320215225219954,-2.0558991432189373],[30.320308685303019,-2.0557360649106613],[30.320367813110408,-2.0555939674376873],[30.320398330688704,-2.0554518699645996],[30.320466995239371,-2.0552887916564941],[30.320478439331112,-2.0551414489744388],[30.320520401001147,-2.0550203323363121],[30.320667266845987,-2.054804563522282],[30.320756912231502,-2.0547573566436768],[30.320867538452205,-2.054720401763916],[30.320941925048999,-2.0546572208402267],[30.320999145507926,-2.0545887947081951],[30.321004867553881,-2.054451942443734],[30.321004867553881,-2.0543520450592041],[30.321077346801928,-2.053957462310791],[30.321083068847713,-2.0538153648376465],[30.321151733398722,-2.0536520481109051],[30.321250915527344,-2.0535259246825035],[30.321334838867472,-2.0534205436705975],[30.321414947509822,-2.0532996654508793],[30.321508407593058,-2.0531575679779053],[30.32161903381359,-2.0530154705046471],[30.321725845336971,-2.0529365539550781],[30.321857452392692,-2.0528733730315594],[30.321989059448299,-2.0528573989868164],[30.322093963623217,-2.0527889728545006],[30.322166442871264,-2.0527207851409912],[30.322282791137752,-2.0526943206787109],[30.322366714477823,-2.0526785850524902],[30.322462081909464,-2.0526523590086754],[30.322650909423999,-2.0525679588316734],[30.322740554809855,-2.052489042281934],[30.32292556762718,-2.052489042281934],[30.323177337646769,-2.0523312091827393],[30.32332038879423,-2.0522260665893555],[30.323413848877124,-2.0521206855773926],[30.323562622070369,-2.0519945621489342],[30.323671340942667,-2.0518524646759033],[30.323766708374308,-2.0516839027404217],[30.323850631714038,-2.0515682697296143],[30.323913574218921,-2.0514893531798748],[30.324045181274471,-2.0513472557067871],[30.324140548706112,-2.051210403442326],[30.324251174927042,-2.0510473251342205],[30.324329376220817,-2.0509157180784996],[30.324413299560547,-2.0508050918578533],[30.324472427368278,-2.0507104396818931],[30.324544906616495,-2.0506157875061035],[30.32463455200201,-2.050515651702824],[30.324804306030444,-2.0504000186920166],[30.324956893921012,-2.0503473281859215],[30.325372695922908,-2.0503895282743088],[30.325462341308594,-2.0504105091094402],[30.325592041015568,-2.050433874130249],[30.325263977050781,-2.0502212047576904],[30.324829101562443,-2.0499398708342369],[30.324790954590128,-2.049915075302124],[30.325042724609546,-2.0492789745330811],[30.325096130371151,-2.0491468906402019],[30.325225830078296,-2.0488202571868328],[30.325513839721964,-2.0483474731445312],[30.325839996338175,-2.0478153228759766],[30.326362609863452,-2.0469584465026287],[30.326433181762866,-2.0468356609344482],[30.326622009277401,-2.0465097427367596],[30.326959609985465,-2.0459225177763756],[30.327062606811467,-2.04579758644104],[30.327280044555721,-2.0455315113067627],[30.327501296997355,-2.045261859893742],[30.328073501587198,-2.044942617416325],[30.328754425048999,-2.044561862945443],[30.329174041748047,-2.0443277359006515],[30.329647064209269,-2.0440626144408611],[30.33006858825712,-2.0438268184661865],[30.33045959472679,-2.0436091423034668],[30.330823898315714,-2.0431330204008873],[30.331125259399698,-2.0429186820983887],[30.331306457519474,-2.0426511764525799],[30.33194923400896,-2.0422978401184082],[30.33238792419445,-2.0422227382658775],[30.332826614380167,-2.0420408248901367],[30.333368301391829,-2.0418159961700439],[30.333663940429688,-2.0416939258575439],[30.334409713745174,-2.0413846969602787],[30.334665298461914,-2.0412788391112144],[30.335416793823526,-2.0409669876098064],[30.335916519165153,-2.0409085750579266],[30.336091995239542,-2.040817022323381],[30.336277008056868,-2.0407750606536865],[30.33635520935087,-2.0406856536865234],[30.3364391326906,-2.0405802726744469],[30.336608886719034,-2.0404908657072838],[30.336755752563477,-2.0404171943663414],[30.336875915527514,-2.0403592586516197],[30.33702468872076,-2.0402698516844566],[30.337198257446346,-2.0401644706725506],[30.337375640869141,-2.0400803089141846],[30.337524414062727,-2.0399909019470215],[30.337671279907397,-2.0398962497710613],[30.337839126586857,-2.0397698879241943],[30.337919235229606,-2.0397276878355228],[30.338033676147518,-2.039675235748291],[30.338071823120401,-2.0396120548247154],[30.33836746215826,-2.0395228862761883],[30.338430404663313,-2.0394704341887859],[30.338573455810774,-2.0393915176390465],[30.338720321655444,-2.0393178462981041],[30.338863372802905,-2.0392756462097168],[30.339046478271655,-2.0393230915069012],[30.339220046997241,-2.0393967628478435],[30.339290618896484,-2.0394370555876549],[30.339309692382926,-2.0392158031463055],[30.339363098144702,-2.0391159057617188],[30.339576721191406,-2.0392978191375732],[30.340021133422908,-2.0396347045897301],[30.340085983276367,-2.0397257804869469],[30.340171813964901,-2.039843797683659],[30.340328216553019,-2.0399203300474937],[30.340456008911417,-2.039982080459481],[30.340606689453409,-2.0400152206419762],[30.340801239013672,-2.0400152206419762],[30.341039657592773,-2.0400152206419762],[30.341228485107479,-2.0399730205535889],[30.341461181640796,-2.0399258136748131],[30.341688156127987,-2.0398797988891602],[30.34181404113798,-2.0398190021513756],[30.341976165771541,-2.0397834777832031],[30.342138290405217,-2.0397624969481853],[30.342302322387752,-2.0397415161131676],[30.342401504516715,-2.0397415161131676],[30.342485427856445,-2.0397415161131676],[30.342569351196573,-2.0397310256958008],[30.342657089233683,-2.0397334098814781],[30.34284591674799,-2.0397965908050537],[30.343021392822379,-2.0398597717285156],[30.343330383300724,-2.0399999618529137],[30.343442916870401,-2.0400702953338055],[30.343526840209961,-2.0401473045347984],[30.34361839294462,-2.0402317047119141],[30.34370231628435,-2.0403158664702232],[30.343814849853686,-2.0404140949249268],[30.344123840332202,-2.0406596660614014],[30.34423637390131,-2.0407087802885826],[30.344404220581168,-2.0407998561859131],[30.344509124756144,-2.0408561229704674],[30.344650268554801,-2.0408840179441654],[30.344741821289119,-2.0408840179441654],[30.345260620117358,-2.0406033992766766],[30.345365524292106,-2.0405192375183105],[30.345506668090991,-2.0404419898986248],[30.345645904541072,-2.0403718948364258],[30.345771789551065,-2.040308713912907],[30.345905303955021,-2.040245532989502],[30.346158981323413,-2.040224552154541],[30.346452713012866,-2.0402035713195232],[30.346643447876147,-2.040224552154541],[30.3469371795656,-2.0402877330778892],[30.347316741943416,-2.0404000282287598],[30.347562789917049,-2.0405542850493248],[30.34769439697277,-2.0406875610350426],[30.347822189331339,-2.0408279895781334],[30.348003387451115,-2.0409822463988689],[30.34814453125,-2.0411016941070557],[30.348215103149471,-2.0412418842314537],[30.348327636718921,-2.0413823127745445],[30.348424911498967,-2.0415506362914471],[30.348495483398608,-2.0417120456694988],[30.348558425903491,-2.0418734550474369],[30.348649978637752,-2.0420417785643394],[30.348789215088061,-2.0421962738037109],[30.348958969116495,-2.0423154830932617],[30.349140167236271,-2.0424208641051678],[30.349548339843807,-2.0425961017607506],[30.349750518798999,-2.0426733493804932],[30.34994125366228,-2.0428767204283531],[30.350101470947209,-2.0430521965024582],[30.350305557250977,-2.0432066917418297],[30.350557327270565,-2.0433328151702312],[30.35078239440918,-2.0433540344237144],[30.350923538208235,-2.0433890819548992],[30.351104736328409,-2.043501377105656],[30.351232528686808,-2.0436065196988693],[30.351364135742358,-2.0437610149382408],[30.351442337036133,-2.0438733100891113],[30.35163879394554,-2.0439925193786621],[30.351793289184741,-2.0440697669982342],[30.352010726928995,-2.0441257953643799],[30.352437973022404,-2.0442941188811687],[30.352718353271769,-2.0444905757904053],[30.352888107299862,-2.0446310043334393],[30.353034973144645,-2.0447783470153809],[30.353181838989315,-2.0448625087737469],[30.353349685668945,-2.0449047088623047],[30.353498458862532,-2.0449678897857666],[30.353666305542049,-2.0450730323791504],[30.35401725769043,-2.045332670211792],[30.354206085205305,-2.045515060424691],[30.354339599609659,-2.0457746982574463],[30.354452133178938,-2.0459289550780113],[30.354585647583292,-2.0461044311522869],[30.354703903198356,-2.0462307929991539],[30.354957580566349,-2.0464692115782555],[30.35510444641119,-2.046581506729126],[30.355258941650561,-2.0467288494108971],[30.355400085449219,-2.0468761920927818],[30.355539321899698,-2.0471007823942386],[30.355665206909293,-2.0472621917724609],[30.356002807617244,-2.0477113723754883],[30.356149673461857,-2.0479428768157391],[30.35627555847185,-2.0482094287870609],[30.356319427490291,-2.048298835754224],[30.356367111206112,-2.0483989715576172],[30.356416702270565,-2.0485813617705162],[30.356529235840014,-2.0487568378447918],[30.357076644897461,-2.0492479801176842],[30.357286453247184,-2.0494654178619385],[30.357477188110465,-2.0495777130126953],[30.357658386230639,-2.0497670173643883],[30.357841491699389,-2.0499424934384933],[30.358009338378849,-2.0500829219816978],[30.358171463012923,-2.0501952171325684],[30.358325958252124,-2.0503284931182861],[30.358528137207315,-2.0505039691923912],[30.358739852905444,-2.0506863594055176],[30.358894348144588,-2.0509319305417648],[30.358957290649698,-2.0511071681976318],[30.358978271484546,-2.0512967109679039],[30.359117507934798,-2.0515844821928795],[30.359245300293026,-2.0518441200256348],[30.359308242798079,-2.0519702434538658],[30.359413146972656,-2.0521175861357506],[30.359504699707315,-2.0522370338439941],[30.359560012817667,-2.0523703098297119],[30.359748840332202,-2.0528473854064373],[30.359848022460994,-2.0529947280883221],[30.359931945800952,-2.0531842708587078],[30.359981536865519,-2.0533666610716637],[30.360031127929915,-2.053598165512085],[30.36003684997587,-2.0538156032562256],[30.36012077331543,-2.0540611743924728],[30.360240936279467,-2.0542716979980469],[30.360445022583065,-2.0545313358306316],[30.360612869262752,-2.0547349452972412],[30.360759735107536,-2.0549032688139732],[30.361040115356502,-2.0551488399504478],[30.361215591430891,-2.0552892684936523],[30.361406326294173,-2.0554225444793701],[30.361637115478572,-2.0556259155272869],[30.361854553222827,-2.055731296539193],[30.362073898315657,-2.055870294570866],[30.362197875976676,-2.0559487342834473],[30.36236763000511,-2.056067943572998],[30.362606048584212,-2.0564188957213219],[30.362787246704386,-2.0565521717070396],[30.362949371337947,-2.0565941333770752],[30.363132476806641,-2.0566504001617432],[30.363307952880859,-2.056706428527832],[30.363460540771655,-2.0567696094512939],[30.363679885864315,-2.056839704513493],[30.363889694214038,-2.0568959712982178],[30.364078521728516,-2.0569519996640793],[30.364240646362418,-2.0570855140686035],[30.364444732666186,-2.0572538375853355],[30.36497688293457,-2.0575275421141441],[30.365123748779581,-2.0576887130737305],[30.365369796753214,-2.0578641891479492],[30.365600585937784,-2.058032751083374],[30.365840911865462,-2.058187007903939],[30.36609268188505,-2.0583765506742111],[30.366394042968864,-2.0585517883300781],[30.366703033447436,-2.0587131977080162],[30.366977691650447,-2.0589168071745689],[30.367187500000171,-2.0590920448303223],[30.36761474609375,-2.0591833591460613],[30.3677978515625,-2.0592324733734131],[30.368070602416935,-2.0592465400695801],[30.368366241455362,-2.059253454208374],[30.368520736694336,-2.0592885017392746],[30.368717193603572,-2.0594358444213299],[30.368843078613565,-2.0595202445983318],[30.368976593017521,-2.0595903396605308],[30.369152069091911,-2.0596463680267334],[30.369291305542049,-2.0596816539764404],[30.36951065063505,-2.0597798824310303],[30.369853973388899,-2.060088396072274],[30.370021820068416,-2.0602779388425461],[30.370225906372355,-2.0604674816131592],[30.370456695556925,-2.0605936050415039],[30.370502471923771,-2.0606284141540527],[30.370552062988565,-2.0605156421660809],[30.370616912842024,-2.0604000091551598],[30.370632171630916,-2.0602893829344566],[30.370658874511719,-2.0600893497466473],[30.370742797851847,-2.059847354888916],[30.370826721191577,-2.0597000122070312],[30.370880126953182,-2.0595052242278484],[30.370952606201172,-2.0592684745787437],[30.371063232421932,-2.0590159893034752],[30.371173858642635,-2.0588316917418865],[30.371337890625284,-2.0585317611694336],[30.371490478515682,-2.0583264827728271],[30.371589660644702,-2.0579633712768555],[30.371721267700252,-2.057679176330339],[30.371816635131893,-2.0573897361755371],[30.372047424316634,-2.0569477081297691],[30.372220993042276,-2.0566215515135582],[30.372394561767692,-2.056316375732365],[30.372520446777514,-2.0560321807861328],[30.372600555419865,-2.0557951927183922],[30.372762680053938,-2.0555794239043621],[30.372884750366381,-2.0553796291350181],[30.372962951660213,-2.0550479888914879],[30.373025894165096,-2.0547218322752769],[30.373109817504996,-2.0544848442077068],[30.373283386230639,-2.0542798042297363],[30.373495101928768,-2.0539219379423912],[30.373626708984659,-2.0537114143371582],[30.373699188232706,-2.0534219741821289],[30.373809814453409,-2.0532114505767822],[30.373958587646655,-2.0529587268829346],[30.373983383178654,-2.0526852607726482],[30.374069213867358,-2.0523061752318199],[30.374099731445312,-2.0520484447479248],[30.374168395996378,-2.0518064498900799],[30.374305725097713,-2.0515484809875488],[30.374374389648722,-2.0511274337768555],[30.374395370483569,-2.0510432720184326],[30.374399185180721,-2.0509328842162518],[30.374441146850643,-2.0507066249846275],[30.374483108520678,-2.050480127334481],[30.374542236328182,-2.050201416015625],[30.374542236328182,-2.0499382019041832],[30.374551773071346,-2.0496487617492107],[30.374641418457202,-2.0494225025177002],[30.374626159668139,-2.049154043197575],[30.37466239929222,-2.0489943027495201],[30.374671936035156,-2.0489556789398193],[30.374715805053995,-2.0489556789398193],[30.374679565429744,-2.0489225387572674],[30.374732971191463,-2.048848628997689],[30.374748229980753,-2.0488252639769371],[30.374790191650447,-2.0487699508665855],[30.374811172485636,-2.0483436584472656],[30.374862670898438,-2.048170089721566],[30.374853134155501,-2.0480332374572754],[30.374784469604663,-2.0478122234344482],[30.37471008300804,-2.0476174354552086],[30.374635696411246,-2.0474753379821209],[30.374530792236499,-2.0473437309262863],[30.374420166015568,-2.0472176074980553],[30.374300003051928,-2.0471069812773521],[30.374141693115405,-2.0469701290130615],[30.374004364013672,-2.0468175411223797],[30.373893737792969,-2.0467228889464195],[30.373773574829158,-2.0465965270994957],[30.37367439270048,-2.0465071201323326],[30.373357772827433,-2.0462596416473389],[30.37331581115717,-2.0461230278014],[30.373294830322322,-2.0460071563720703],[30.373199462890682,-2.0458598136901855],[30.37313652038597,-2.0457124710083008],[30.373079299927042,-2.0455598831176189],[30.372957229614428,-2.0454492568969158],[30.372795104980526,-2.0453388690947349],[30.37261009216337,-2.0452125072479248],[30.372505187988224,-2.0450968742370605],[30.372247695922908,-2.0447862148283775],[30.372169494629077,-2.0446863174437908],[30.372062683105526,-2.0445864200592041],[30.371963500976733,-2.0444757938383873],[30.371879577637003,-2.0443916320800213],[30.371784210205362,-2.0442547798156738],[30.371757507324389,-2.0441336631774902],[30.371688842773722,-2.0440020561217693],[30.37165832519554,-2.0438916683195885],[30.371562957763899,-2.043728590011483],[30.371479034423999,-2.0436882972716717],[30.371431350708178,-2.0436654090880779],[30.371305465698356,-2.0436074733733562],[30.371194839477823,-2.0435652732848553],[30.371110916137752,-2.0435075759887695],[30.371015548706112,-2.0433917045593262],[30.370889663696289,-2.0432813167572021],[30.370742797851847,-2.0431180000305176],[30.370542526245231,-2.0429866313932052],[30.370426177978743,-2.0428707599638756],[30.370336532593058,-2.0427656173704918],[30.370141983032227,-2.0426392555236248],[30.369884490967081,-2.0424706935882568],[30.369647979736385,-2.0423128604888916],[30.369316101074219,-2.0421130657196045],[30.369106292724666,-2.0419392585753258],[30.368789672851619,-2.0416762828826336],[30.368284225464038,-2.0412447452545166],[30.368164062500171,-2.0410974025726318],[30.368089675903548,-2.0409500598907471],[30.368005752563647,-2.0408446788786705],[30.367935180664006,-2.0407392978668213],[30.367853164672852,-2.0405921936034019],[30.367774963379077,-2.0404553413391113],[30.367658615112589,-2.0402762889860924],[30.36749458312994,-2.0400447845458984],[30.367416381835938,-2.0399131774901775],[30.367326736450423,-2.0398027896879967],[30.367254257202433,-2.0396974086760906],[30.367168426513729,-2.0395712852475754],[30.367101669311637,-2.039439678192025],[30.367057800293026,-2.0393238067625816],[30.36703300476097,-2.0391869544982342],[30.366996765136889,-2.0390317440031822],[30.366889953613509,-2.0388975143432617],[30.366790771484318,-2.0387661457060631],[30.366563796997298,-2.0384714603422935],[30.366464614868335,-2.0383713245391846],[30.366159439086971,-2.0380134582518394],[30.366069793701456,-2.0379030704498291],[30.365943908691634,-2.0377399921417236],[30.365806579590128,-2.0375714302061851],[30.365690231323299,-2.0374345779418377],[30.365564346313477,-2.0372295379638672],[30.365480422973746,-2.0370979309082031],[30.365390777588061,-2.0369346141814049],[30.365232467651538,-2.0367927551268394],[30.365001678466967,-2.0364925861357506],[30.364896774291992,-2.0364031791685875],[30.364801406860352,-2.0363452434539795],[30.364748001098803,-2.03626632690424],[30.364679336548136,-2.0361454486845219],[30.364574432373161,-2.0360348224639893],[30.364284515380916,-2.0358664989471436],[30.364217758178995,-2.0357875823973473],[30.364158630371264,-2.0356297492980389],[30.364101409912166,-2.0355191230773357],[30.364053726196346,-2.0353507995604332],[30.364038467407227,-2.0351717472075848],[30.364000320434741,-2.0350139141082764],[30.363916397095011,-2.0348508358001709],[30.363876342773722,-2.0347354412078857],[30.363847732543945,-2.0346612930296146],[30.363748550415323,-2.0344350337981041],[30.363700866699503,-2.0343194007872967],[30.363679885864315,-2.0341930389404297],[30.363664627075252,-2.0340456962585449],[30.363628387451286,-2.0338404178618816],[30.363569259643612,-2.0336668491363525],[30.363496780395565,-2.0335984230040367],[30.363416671753157,-2.0334720611571697],[30.363365173340014,-2.0333774089812096],[30.363302230834904,-2.0332458019256592],[30.363296508789347,-2.0330879688261803],[30.363281250000057,-2.0329406261442955],[30.363254547119084,-2.0328299999234787],[30.363128662109659,-2.0326459407806396],[30.362985610962198,-2.0325775146483238],[30.362833023071232,-2.0324878692626953],[30.362791061401367,-2.0323565006254967],[30.362716674804744,-2.0322196483612061],[30.362668991088924,-2.0320405960081871],[30.362585067749194,-2.0319302082061768],[30.362527847290096,-2.0317776203155518],[30.362495422363338,-2.0316722393035889],[30.362497329711914,-2.03151535987854],[30.362501144409464,-2.0313723087310791],[30.362474441528491,-2.0312249660491375],[30.362396240234318,-2.031082868575993],[30.362327575683651,-2.0309724807738689],[30.362264633178938,-2.0308670997619629],[30.362207412720011,-2.030756711959782],[30.362138748169002,-2.0306355953215416],[30.362070083618107,-2.0305304527281578],[30.361980438232422,-2.0304355621336754],[30.361860275268612,-2.0300829410552979],[30.361860275268612,-2.0299777984618004],[30.361843109131087,-2.0298619270324707],[30.361827850341854,-2.0297567844390869],[30.361764907836971,-2.0296146869658287],[30.361707687377987,-2.0294830799101646],[30.361639022827148,-2.029388427734375],[30.36155891418457,-2.0293147563932621],[30.361516952514705,-2.0292305946350098],[30.361490249633732,-2.029083251953125],[30.361423492431697,-2.0290095806121826],[30.361253738403605,-2.0286989212034996],[30.36119651794445,-2.0285568237304119],[30.361190795898494,-2.0284202098845867],[30.361175537109602,-2.0282728672027588],[30.361175537109602,-2.0281307697296143],[30.361169815063477,-2.0279412269592285],[30.361169815063477,-2.0277886390684898],[30.361164093017521,-2.0276095867156414],[30.361106872558764,-2.0274360179901123],[30.361043930053881,-2.0272519588469891],[30.360969543457088,-2.0269677639006431],[30.360900878906421,-2.0267782211303711],[30.360837936401538,-2.0265941619873047],[30.360780715942383,-2.0263993740081787],[30.360712051391715,-2.0262992382049561],[30.36058616638212,-2.0260782241819584],[30.3605384826663,-2.0259730815887451],[30.360464096069506,-2.0258362293242271],[30.360412597656477,-2.0257258415222168],[30.360353469848576,-2.0256204605102539],[30.360324859619197,-2.0255563259124756],[30.360313415527514,-2.0255270004272461],[30.360286712646541,-2.0254678726195152],[30.360233306884936,-2.0252573490142254],[30.360206604003963,-2.0251700878142742],[30.360164642334269,-2.0250942707061199],[30.360149383545206,-2.0250048637389568],[30.360023498535384,-2.0246100425719078],[30.359992980957088,-2.0245108604430015],[30.35996055603033,-2.0243995189666748],[30.359943389892635,-2.0242364406583988],[30.359895706176815,-2.024073362350407],[30.359874725341797,-2.0239365100859459],[30.359838485718058,-2.0237786769866943],[30.359790802002237,-2.0236628055570236],[30.359697341919173,-2.0234944820404053],[30.359622955322379,-2.0233681201933678],[30.359512329101847,-2.0232260227202801],[30.359443664550838,-2.0230367183685303],[30.359395980835018,-2.0228419303892906],[30.359344482421818,-2.0226788520811851],[30.359306335449503,-2.0225262641906738],[30.359296798705998,-2.0223946571348392],[30.359285354614315,-2.0222368240356445],[30.359233856201286,-2.022068262100106],[30.359186172485465,-2.0218842029571533],[30.359159469604492,-2.0217316150663009],[30.359075546264933,-2.0215790271759033],[30.35896492004423,-2.0215001106261639],[30.358896255493221,-2.0212368965146652],[30.35886573791521,-2.0211105346679688],[30.358844757080362,-2.0209579467772301],[30.358823776245174,-2.0208370685576256],[30.358770370483569,-2.0206317901610191],[30.358716964721793,-2.0204949378966717],[30.358650207519531,-2.020352840423584],[30.35857009887701,-2.0202107429503258],[30.358491897583008,-2.0201053619384197],[30.358312606811808,-2.0199949741362389],[30.358196258544979,-2.0199635028838543],[30.358097076416129,-2.0199265480040935],[30.357965469360408,-2.0198686122894287],[30.357864379882983,-2.0198106765746502],[30.35765457153326,-2.0197687149047852],[30.357576370239315,-2.0196633338925949],[30.357492446899357,-2.0195529460905846],[30.357391357422159,-2.0194475650787354],[30.357318878174112,-2.0193214416502769],[30.357265472412337,-2.0192055702208336],[30.357208251953409,-2.019089937210083],[30.357112884521769,-2.0189845561981201],[30.357023239135913,-2.0188581943510826],[30.356870651245117,-2.0185952186584473],[30.356859207153605,-2.0184845924375736],[30.356864929199162,-2.0183267593383789],[30.356855392456225,-2.0182003974913414],[30.35684967041027,-2.0181109905241783],[30.356843948364315,-2.0179953575133709],[30.356843948364315,-2.0178689956665039],[30.35684967041027,-2.017711162567025],[30.356864929199162,-2.0175795555114746],[30.356876373291243,-2.0174479484558105],[30.356903076172046,-2.0173110961913494],[30.356927871704272,-2.0171322822570232],[30.356924057007063,-2.0169742107390221],[30.356912612914982,-2.0167639255522545],[30.35688591003418,-2.0165691375731853],[30.35689735412609,-2.0164217948913006],[30.356891632080135,-2.0162165164946941],[30.356998443603686,-2.0159239768980797],[30.357028961181641,-2.0158429145812988],[30.357070922851733,-2.0157165527342613],[30.357086181640796,-2.0155272483825115],[30.357101440429858,-2.0153903961181641],[30.357070922851733,-2.0151798725128174],[30.356986999511776,-2.0150430202482994],[30.356939315795955,-2.0148694515227703],[30.356792449951342,-2.0147113800047691],[30.356702804565487,-2.0146062374113853],[30.3566188812257,-2.0144851207731449],[30.356502532959212,-2.0143694877623375],[30.356254577637003,-2.0141272544859703],[30.355901718139819,-2.0137221813200199],[30.355634689331339,-2.0135273933409508],[30.355533599853572,-2.0134694576262291],[30.355428695678995,-2.0134117603301434],[30.35537147521984,-2.0133063793181236],[30.355312347412109,-2.0131695270537762],[30.355228424072379,-2.0130538940429688],[30.354997634887809,-2.0128116607664879],[30.354707717895565,-2.0124959945678143],[30.35465049743658,-2.0123960971832275],[30.354545593262003,-2.0122802257537842],[30.354339599609659,-2.0120749473571209],[30.354202270507756,-2.011890888213884],[30.35406494140625,-2.0117275714874268],[30.353897094726619,-2.0115697383880615],[30.353891372680835,-2.0113434791564373],[30.353849411010799,-2.0111329555510338],[30.353828430175952,-2.0110015869140625],[30.353687286377237,-2.010638475418034],[30.353645324707202,-2.0105330944060142],[30.353576660156534,-2.0104331970214844],[30.353513717651424,-2.0103120803833008],[30.353471755981559,-2.010164737701416],[30.353429794311694,-2.0100436210631756],[30.35334396362299,-2.0099489688872154],[30.353256225586108,-2.0098648071288494],[30.353166580200195,-2.009791135787907],[30.353082656860465,-2.0097227096555912],[30.353050231933537,-2.0096175670623779],[30.352972030639933,-2.009485960006657],[30.352882385254077,-2.00935959815979],[30.352802276611499,-2.0092017650603111],[30.352724075317326,-2.0091228485107422],[30.352607727050838,-2.0089755058288006],[30.352523803711108,-2.0088438987731934],[30.352434158325252,-2.0087227821348961],[30.352376937866495,-2.0085597038269043],[30.352302551269702,-2.0083966255187988],[30.352233886719034,-2.0082755088806152],[30.352182388305835,-2.0081334114074707],[30.352144241332951,-2.0080122947691734],[30.352113723755167,-2.0078914165494552],[30.352102279663086,-2.0077440738676842],[30.352102279663086,-2.0076282024382408],[30.352140426635799,-2.0075073242186363],[30.352176666259879,-2.0074071884155273],[30.352233886719034,-2.0072493553160484],[30.352287292480412,-2.0070598125456627],[30.35230827331543,-2.0068809986113365],[30.352376937866495,-2.0067019462585449],[30.352449417114485,-2.0064756870268639],[30.352481842041072,-2.0061914920806885],[30.352508544922046,-2.0057389736174969],[30.352535247803019,-2.0055706501005943],[30.352565765380973,-2.0054023265838623],[30.352565765380973,-2.0052390098569504],[30.352581024169865,-2.0050549507141113],[30.352581024169865,-2.0048601627349854],[30.352565765380973,-2.0046708583831787],[30.352550506592081,-2.0045497417449383],[30.35251426696783,-2.0044233798980144],[30.352493286132983,-2.0042760372161865],[30.35246658325201,-2.0040814876556396],[30.35240364074707,-2.0039551258087158],[30.352386474609432,-2.0038497447966392],[30.352334976196232,-2.0037288665770348],[30.352281570434855,-2.0035867691040039],[30.352218627929744,-2.0034499168394859],[30.352134704590014,-2.0033445358275799],[30.351991653442553,-2.003197193145752],[30.351898193359489,-2.003149986267033],[30.351823806762695,-2.0030815601348877],[30.351745605468921,-2.0030341148375896],[30.351619720458928,-2.0029814243314945],[30.351530075073242,-2.0028393268585205],[30.351398468017862,-2.0027341842651367],[30.351291656494141,-2.0026237964628422],[30.351198196411076,-2.0025289058685303],[30.35112380981451,-2.0023815631866455],[30.35096549987793,-2.0022659301756676],[30.35083389282255,-2.0021870136260986],[30.350728988647631,-2.0021078586578369],[30.350635528564737,-2.0019869804382324],[30.350540161133097,-2.0018920898436363],[30.350435256957951,-2.0018184185028076],[30.350360870361385,-2.0017080307006836],[30.350297927856445,-2.0015554428098312],[30.350219726562671,-2.0014290809631348],[30.350154876708984,-2.0012817382811932],[30.35008811950712,-2.0011553764342693],[30.349956512451172,-2.0010502338407719],[30.349903106689396,-2.0009660720825195],[30.349866867065657,-2.0008502006530762],[30.349723815918196,-2.000629186630249],[30.349634170532511,-2.000408172607365],[30.349571228027628,-2.0002977848050705],[30.349519729614428,-2.0001609325408936],[30.349451065063761,-2.0000398159026531],[30.349388122558878,-1.9998977184295086],[30.349349975586165,-1.9997608661650474],[30.349313735962085,-1.9996135234831627],[30.349277496338175,-1.9994925260543823],[30.349239349365291,-1.9994136095046429],[30.34926033020048,-1.9992820024489788],[30.349266052246264,-1.9991557598114014],[30.349250793457202,-1.9990031719207764],[30.349208831787109,-1.9988083839416504],[30.349113464355469,-1.9986610412597656],[30.349002838134766,-1.9983716011046226],[30.348934173584098,-1.9982506036758423],[30.348876953125171,-1.9981137514113811],[30.348751068115348,-1.9979611635206993],[30.34868240356468,-1.9978454113005455],[30.34858703613304,-1.9977190494536785],[30.348508834838924,-1.9976085424423218],[30.348445892333984,-1.9975507259368896],[30.348350524902344,-1.9975138902664185],[30.348234176635685,-1.9974349737166222],[30.348140716553019,-1.997340202331543],[30.348077774047908,-1.9972717761993408],[30.348005294800089,-1.9971777200698853],[30.347984313964901,-1.9971522092819214],[30.34773445129423,-1.9969297647476196],[30.347661972045842,-1.9968454837799072],[30.347587585449219,-1.9967981576918987],[30.347534179687671,-1.9967403411864666],[30.347461700439624,-1.9966560602187542],[30.347404479980526,-1.9966034889220055],[30.34733963012718,-1.9965350627898601],[30.347276687622127,-1.9964350461959839],[30.347234725952433,-1.9963403940199669],[30.34720802307146,-1.9961298704145634],[30.347187042236612,-1.9959456920622642],[30.347183227539233,-1.9957931041715824],[30.347135543823413,-1.9956299066543011],[30.347166061401424,-1.9954982995985802],[30.34719276428217,-1.9953509569166954],[30.347204208374251,-1.9951773881912231],[30.34715652465843,-1.9950141906737144],[30.34710884094261,-1.9948195219039917],[30.347066879272745,-1.9946194887160118],[30.347055435180664,-1.9944880008696373],[30.347040176391772,-1.9943774938581669],[30.347034454345817,-1.9942458868026165],[30.346977233886889,-1.9941142797469524],[30.346920013427734,-1.9940196275709923],[30.346860885620401,-1.9939143657684326],[30.346797943115519,-1.9938143491744995],[30.346746444702319,-1.9936881065368084],[30.346677780151651,-1.9935669898986816],[30.346597671508903,-1.9934512376784141],[30.346492767334155,-1.993393421172982],[30.346403121948299,-1.9934564828872112],[30.34630393981962,-1.993351221084481]]]},"properties":{"FID":0,"ID_0":189,"ISO":"RWA","NAME_0":"Rwanda","ID_1":3,"NAME_1":"Iburasirazuba","ID_2":20,"NAME_2":"Rwamagana","ID_3":285,"NAME_3":"Nzige","TYPE_3":"Sector","ENGTYPE_3":"Sector","NL_NAME_3":" ","VARNAME_3":" "}}]}